{"fetched_at":"2026-03-29T16:36:15Z","count":15609,"tles":[{"name":"STARLINK-5584","line1":"1 55769U 23028AE  26087.66256174  .00004205  00000+0  36020-3 0  9991","line2":"2 55769  70.0012 176.6769 0002968 263.0364  97.0458 14.98310629169377","category":"Starlink"}]}